STARLINK-1637
1 16133C 20057S   21326.03664153  .00000779  00000-0  52221-4 0  3266
2 16133  53.0516 118.5776 0001574  87.5260 303.6557 15.06387570    11
